[{"OBJECT_NAME":"ONEWEB-0356","OBJECT_ID":"2021-090E","EPOCH":"2026-03-07T15:16:17.374080","MEAN_MOTION":13.20770334,"ECCENTRICITY":7.458e-5,"INCLINATION":87.9169,"RA_OF_ASC_NODE":294.7104,"ARG_OF_PERICENTER":65.9317,"MEAN_ANOMALY":294.1894,"EPHEMERIS_TYPE":0,"CLASSIFICATION_TYPE":"U","NORAD_CAT_ID":49283,"ELEMENT_SET_NO":999,"REV_AT_EPOCH":21642,"BSTAR":-0.00035237556,"MEAN_MOTION_DOT":-1.3e-6,"MEAN_MOTION_DDOT":0},{"OBJECT_NAME":"ONEWEB-0358","OBJECT_ID":"2021-090F","EPOCH":"2026-03-07T14:10:23.963232","MEAN_MOTION":13.20771761,"ECCENTRICITY":0.00015125,"INCLINATION":87.9176,"RA_OF_ASC_NODE":294.7221,"ARG_OF_PERICENTER":80.2371,"MEAN_ANOMALY":279.8933,"EPHEMERIS_TYPE":0,"CLASSIFICATION_TYPE":"U","NORAD_CAT_ID":49284,"ELEMENT_SET_NO":999,"REV_AT_EPOCH":21714,"BSTAR":0.00012549574,"MEAN_MOTION_DOT":6.4e-7,"MEAN_MOTION_DDOT":0},{"OBJECT_NAME":"ONEWEB-0359","OBJECT_ID":"2021-090G","EPOCH":"2026-03-07T14:05:51.407520","MEAN_MOTION":13.20769884,"ECCENTRICITY":0.00017581,"INCLINATION":87.9177,"RA_OF_ASC_NODE":294.7203,"ARG_OF_PERICENTER":75.4858,"MEAN_ANOMALY":284.647,"EPHEMERIS_TYPE":0,"CLASSIFICATION_TYPE":"U","NORAD_CAT_ID":49285,"ELEMENT_SET_NO":999,"REV_AT_EPOCH":21712,"BSTAR":2.9828934e-5,"MEAN_MOTION_DOT":2.5e-7,"MEAN_MOTION_DDOT":0},{"OBJECT_NAME":"ONEWEB-0360","OBJECT_ID":"2021-090H","EPOCH":"2026-03-07T15:41:17.432736","MEAN_MOTION":13.20770032,"ECCENTRICITY":0.00016593,"INCLINATION":87.9174,"RA_OF_ASC_NODE":294.7132,"ARG_OF_PERICENTER":80.7742,"MEAN_ANOMALY":279.3579,"EPHEMERIS_TYPE":0,"CLASSIFICATION_TYPE":"U","NORAD_CAT_ID":49286,"ELEMENT_SET_NO":999,"REV_AT_EPOCH":21644,"BSTAR":-0.00027739537,"MEAN_MOTION_DOT":-1.0e-6,"MEAN_MOTION_DDOT":0},{"OBJECT_NAME":"ONEWEB-0361","OBJECT_ID":"2021-090J","EPOCH":"2026-03-07T15:14:01.144608","MEAN_MOTION":13.20772878,"ECCENTRICITY":0.00013764,"INCLINATION":87.9176,"RA_OF_ASC_NODE":294.7146,"ARG_OF_PERICENTER":79.7151,"MEAN_ANOMALY":280.4137,"EPHEMERIS_TYPE":0,"CLASSIFICATION_TYPE":"U","NORAD_CAT_ID":49287,"ELEMENT_SET_NO":999,"REV_AT_EPOCH":21689,"BSTAR":9.5827394e-5,"MEAN_MOTION_DOT":5.2e-7,"MEAN_MOTION_DDOT":0},{"OBJECT_NAME":"ONEWEB-0362","OBJECT_ID":"2021-090K","EPOCH":"2026-03-07T06:42:24.973344","MEAN_MOTION":13.19726731,"ECCENTRICITY":0.0001917,"INCLINATION":87.9227,"RA_OF_ASC_NODE":325.2831,"ARG_OF_PERICENTER":82.3555,"MEAN_ANOMALY":277.7795,"EPHEMERIS_TYPE":0,"CLASSIFICATION_TYPE":"U","NORAD_CAT_ID":49288,"ELEMENT_SET_NO":999,"REV_AT_EPOCH":21347,"BSTAR":0.00032227,"MEAN_MOTION_DOT":1.42e-6,"MEAN_MOTION_DDOT":0},{"OBJECT_NAME":"ONEWEB-0363","OBJECT_ID":"2021-090L","EPOCH":"2026-03-07T15:36:45.794592","MEAN_MOTION":13.20774968,"ECCENTRICITY":0.00013819,"INCLINATION":87.9176,"RA_OF_ASC_NODE":294.7123,"ARG_OF_PERICENTER":73.7135,"MEAN_ANOMALY":286.4151,"EPHEMERIS_TYPE":0,"CLASSIFICATION_TYPE":"U","NORAD_CAT_ID":49289,"ELEMENT_SET_NO":999,"REV_AT_EPOCH":21690,"BSTAR":0.00032248949,"MEAN_MOTION_DOT":1.44e-6,"MEAN_MOTION_DDOT":0},{"OBJECT_NAME":"ONEWEB-0364","OBJECT_ID":"2021-090M","EPOCH":"2026-03-07T14:42:12.823488","MEAN_MOTION":13.20772588,"ECCENTRICITY":0.00015115,"INCLINATION":87.9162,"RA_OF_ASC_NODE":294.735,"ARG_OF_PERICENTER":82.52,"MEAN_ANOMALY":277.6105,"EPHEMERIS_TYPE":0,"CLASSIFICATION_TYPE":"U","NORAD_CAT_ID":49290,"ELEMENT_SET_NO":999,"REV_AT_EPOCH":21803,"BSTAR":-8.4038622e-5,"MEAN_MOTION_DOT":-2.1e-7,"MEAN_MOTION_DDOT":0},{"OBJECT_NAME":"ONEWEB-0365","OBJECT_ID":"2021-090N","EPOCH":"2026-03-07T05:06:52.966656","MEAN_MOTION":13.19723991,"ECCENTRICITY":0.0001709,"INCLINATION":87.9244,"RA_OF_ASC_NODE":325.2748,"ARG_OF_PERICENTER":82.3009,"MEAN_ANOMALY":277.8318,"EPHEMERIS_TYPE":0,"CLASSIFICATION_TYPE":"U","NORAD_CAT_ID":49291,"ELEMENT_SET_NO":999,"REV_AT_EPOCH":21297,"BSTAR":0.00019202,"MEAN_MOTION_DOT":9.0e-7,"MEAN_MOTION_DDOT":0},{"OBJECT_NAME":"ONEWEB-0366","OBJECT_ID":"2021-090P","EPOCH":"2026-03-07T14:10:01.215840","MEAN_MOTION":13.14502067,"ECCENTRICITY":0.00016065,"INCLINATION":87.8982,"RA_OF_ASC_NODE":309.9849,"ARG_OF_PERICENTER":78.9238,"MEAN_ANOMALY":281.2072,"EPHEMERIS_TYPE":0,"CLASSIFICATION_TYPE":"U","NORAD_CAT_ID":49292,"ELEMENT_SET_NO":999,"REV_AT_EPOCH":21421,"BSTAR":0.00045127736,"MEAN_MOTION_DOT":1.8e-6,"MEAN_MOTION_DDOT":0},{"OBJECT_NAME":"ONEWEB-0367","OBJECT_ID":"2021-090Q","EPOCH":"2026-03-07T15:34:28.322688","MEAN_MOTION":13.20773381,"ECCENTRICITY":0.00017985,"INCLINATION":87.9174,"RA_OF_ASC_NODE":294.7128,"ARG_OF_PERICENTER":87.4716,"MEAN_ANOMALY":272.6623,"EPHEMERIS_TYPE":0,"CLASSIFICATION_TYPE":"U","NORAD_CAT_ID":49293,"ELEMENT_SET_NO":999,"REV_AT_EPOCH":21642,"BSTAR":0.00011752464,"MEAN_MOTION_DOT":6.1e-7,"MEAN_MOTION_DDOT":0},{"OBJECT_NAME":"ONEWEB-0368","OBJECT_ID":"2021-090R","EPOCH":"2026-03-07T14:55:50.037024","MEAN_MOTION":13.20773636,"ECCENTRICITY":9.464e-5,"INCLINATION":87.9167,"RA_OF_ASC_NODE":294.7394,"ARG_OF_PERICENTER":103.4149,"MEAN_ANOMALY":256.709,"EPHEMERIS_TYPE":0,"CLASSIFICATION_TYPE":"U","NORAD_CAT_ID":49294,"ELEMENT_SET_NO":999,"REV_AT_EPOCH":21757,"BSTAR":-6.3599175e-5,"MEAN_MOTION_DOT":-1.3e-7,"MEAN_MOTION_DDOT":0},{"OBJECT_NAME":"ONEWEB-0369","OBJECT_ID":"2021-090S","EPOCH":"2026-03-07T15:55:07.364352","MEAN_MOTION":13.19725914,"ECCENTRICITY":0.00016208,"INCLINATION":87.9232,"RA_OF_ASC_NODE":325.2036,"ARG_OF_PERICENTER":81.0294,"MEAN_ANOMALY":279.1022,"EPHEMERIS_TYPE":0,"CLASSIFICATION_TYPE":"U","NORAD_CAT_ID":49295,"ELEMENT_SET_NO":999,"REV_AT_EPOCH":21302,"BSTAR":5.66927e-5,"MEAN_MOTION_DOT":3.6e-7,"MEAN_MOTION_DDOT":0},{"OBJECT_NAME":"ONEWEB-0370","OBJECT_ID":"2021-090T","EPOCH":"2026-03-07T13:59:02.187744","MEAN_MOTION":13.207724,"ECCENTRICITY":0.00018707,"INCLINATION":87.9175,"RA_OF_ASC_NODE":294.7267,"ARG_OF_PERICENTER":82.5128,"MEAN_ANOMALY":277.6218,"EPHEMERIS_TYPE":0,"CLASSIFICATION_TYPE":"U","NORAD_CAT_ID":49296,"ELEMENT_SET_NO":999,"REV_AT_EPOCH":21645,"BSTAR":0.00014880039,"MEAN_MOTION_DOT":7.3e-7,"MEAN_MOTION_DDOT":0},{"OBJECT_NAME":"ONEWEB-0371","OBJECT_ID":"2021-090U","EPOCH":"2026-03-07T05:11:26.319840","MEAN_MOTION":13.19725873,"ECCENTRICITY":0.0001762,"INCLINATION":87.9236,"RA_OF_ASC_NODE":325.2813,"ARG_OF_PERICENTER":81.5979,"MEAN_ANOMALY":278.5354,"EPHEMERIS_TYPE":0,"CLASSIFICATION_TYPE":"U","NORAD_CAT_ID":49297,"ELEMENT_SET_NO":999,"REV_AT_EPOCH":21300,"BSTAR":0.00023045,"MEAN_MOTION_DOT":1.05e-6,"MEAN_MOTION_DDOT":0},{"OBJECT_NAME":"ONEWEB-0372","OBJECT_ID":"2021-090V","EPOCH":"2026-03-07T15:32:01.521312","MEAN_MOTION":13.20772427,"ECCENTRICITY":0.00016304,"INCLINATION":87.9174,"RA_OF_ASC_NODE":294.7146,"ARG_OF_PERICENTER":87.8421,"MEAN_ANOMALY":272.2899,"EPHEMERIS_TYPE":0,"CLASSIFICATION_TYPE":"U","NORAD_CAT_ID":49298,"ELEMENT_SET_NO":999,"REV_AT_EPOCH":21643,"BSTAR":0.00015550936,"MEAN_MOTION_DOT":7.6e-7,"MEAN_MOTION_DDOT":0},{"OBJECT_NAME":"ONEWEB-0373","OBJECT_ID":"2021-090W","EPOCH":"2026-03-07T14:21:45.227232","MEAN_MOTION":13.20769898,"ECCENTRICITY":0.00016105,"INCLINATION":87.9164,"RA_OF_ASC_NODE":294.7299,"ARG_OF_PERICENTER":80.3432,"MEAN_ANOMALY":279.7883,"EPHEMERIS_TYPE":0,"CLASSIFICATION_TYPE":"U","NORAD_CAT_ID":49299,"ELEMENT_SET_NO":999,"REV_AT_EPOCH":21761,"BSTAR":-4.4910387e-5,"MEAN_MOTION_DOT":-5.0e-8,"MEAN_MOTION_DDOT":0},{"OBJECT_NAME":"ONEWEB-0374","OBJECT_ID":"2021-090X","EPOCH":"2026-03-07T15:41:21.470208","MEAN_MOTION":13.14501998,"ECCENTRICITY":0.00010993,"INCLINATION":87.8988,"RA_OF_ASC_NODE":309.9561,"ARG_OF_PERICENTER":70.0452,"MEAN_ANOMALY":290.0796,"EPHEMERIS_TYPE":0,"CLASSIFICATION_TYPE":"U","NORAD_CAT_ID":49300,"ELEMENT_SET_NO":999,"REV_AT_EPOCH":21422,"BSTAR":0.0004604468,"MEAN_MOTION_DOT":1.83e-6,"MEAN_MOTION_DDOT":0},{"OBJECT_NAME":"ONEWEB-0375","OBJECT_ID":"2021-090Y","EPOCH":"2026-03-07T14:03:35.329248","MEAN_MOTION":13.20771778,"ECCENTRICITY":0.00013727,"INCLINATION":87.9178,"RA_OF_ASC_NODE":294.7196,"ARG_OF_PERICENTER":64.5998,"MEAN_ANOMALY":295.5278,"EPHEMERIS_TYPE":0,"CLASSIFICATION_TYPE":"U","NORAD_CAT_ID":49301,"ELEMENT_SET_NO":999,"REV_AT_EPOCH":21711,"BSTAR":0.00012054377,"MEAN_MOTION_DOT":6.2e-7,"MEAN_MOTION_DDOT":0},{"OBJECT_NAME":"ONEWEB-0376","OBJECT_ID":"2021-090Z","EPOCH":"2026-03-07T16:04:12.500832","MEAN_MOTION":13.19726667,"ECCENTRICITY":0.00016691,"INCLINATION":87.924,"RA_OF_ASC_NODE":325.1846,"ARG_OF_PERICENTER":87.0028,"MEAN_ANOMALY":273.1296,"EPHEMERIS_TYPE":0,"CLASSIFICATION_TYPE":"U","NORAD_CAT_ID":49302,"ELEMENT_SET_NO":999,"REV_AT_EPOCH":21306,"BSTAR":-0.00017922828,"MEAN_MOTION_DOT":-5.9e-7,"MEAN_MOTION_DDOT":0},{"OBJECT_NAME":"ONEWEB-0377","OBJECT_ID":"2021-090AA","EPOCH":"2026-03-07T15:32:24.387936","MEAN_MOTION":13.20769452,"ECCENTRICITY":0.00016891,"INCLINATION":87.9172,"RA_OF_ASC_NODE":294.7092,"ARG_OF_PERICENTER":79.3743,"MEAN_ANOMALY":280.7581,"EPHEMERIS_TYPE":0,"CLASSIFICATION_TYPE":"U","NORAD_CAT_ID":49303,"ELEMENT_SET_NO":999,"REV_AT_EPOCH":21711,"BSTAR":3.244851e-5,"MEAN_MOTION_DOT":2.6e-7,"MEAN_MOTION_DDOT":0},{"OBJECT_NAME":"ONEWEB-0378","OBJECT_ID":"2021-090AB","EPOCH":"2026-03-07T14:15:07.376832","MEAN_MOTION":13.20770541,"ECCENTRICITY":0.0001466,"INCLINATION":87.9167,"RA_OF_ASC_NODE":294.7305,"ARG_OF_PERICENTER":83.8127,"MEAN_ANOMALY":276.3173,"EPHEMERIS_TYPE":0,"CLASSIFICATION_TYPE":"U","NORAD_CAT_ID":49304,"ELEMENT_SET_NO":999,"REV_AT_EPOCH":21637,"BSTAR":-0.00068616115,"MEAN_MOTION_DOT":-2.66e-6,"MEAN_MOTION_DDOT":0},{"OBJECT_NAME":"ONEWEB-0379","OBJECT_ID":"2021-090AC","EPOCH":"2026-03-07T15:34:30.407520","MEAN_MOTION":13.14502714,"ECCENTRICITY":0.00014582,"INCLINATION":87.8991,"RA_OF_ASC_NODE":309.9666,"ARG_OF_PERICENTER":81.0368,"MEAN_ANOMALY":279.0926,"EPHEMERIS_TYPE":0,"CLASSIFICATION_TYPE":"U","NORAD_CAT_ID":49305,"ELEMENT_SET_NO":999,"REV_AT_EPOCH":21422,"BSTAR":0.00044467377,"MEAN_MOTION_DOT":1.78e-6,"MEAN_MOTION_DDOT":0}]
